start=new Date('2022-03-27T00:00:00.000Z').valueOf();
sats=[{"DECAY_DATE":null,"REV_AT_EPOCH":"6598","PERIOD":"95.592","RA_OF_ASC_NODE":"23.2227","MEAN_MOTION_DOT":"0.00001032","NORAD_CAT_ID":"47395","CENTER_NAME":"EARTH","RCS_SIZE":"LARGE","TLE_LINE1":"1 47395U 21005AY  22085.86216222  .00001032  00000-0  88160-4 0  9995","ARG_OF_PERICENTER":"52.3358","INCLINATION":"53.0567","SITE":"AFETR","REF_FRAME":"TEME","MEAN_MOTION_DDOT":"0.0000000000000","OBJECT_NAME":"STARLINK-2117","EPOCH":"2022-03-26T20:41:30.815808","GP_ID":"199780494","MEAN_MOTION":"15.06394582","MEAN_ELEMENT_THEORY":"SGP4","ECCENTRICITY":"0.00018620","ELEMENT_SET_NO":"999","TIME_SYSTEM":"UTC","CLASSIFICATION_TYPE":"U","COUNTRY_CODE":"US","OBJECT_ID":"2021-005AY","LAUNCH_DATE":"2021-01-20","TLE_LINE2":"2 47395  53.0567  23.2227 0001862  52.3358 307.7799 15.06394582 65980","MEAN_ANOMALY":"307.7799","PERIAPSIS":"545.941","APOAPSIS":"548.520","OBJECT_TYPE":"PAYLOAD","FILE":"3375650","BSTAR":"0.00008816000000","SEMIMAJOR_AXIS":"6925.365","EPHEMERIS_TYPE":"0"},{"APOAPSIS":"548.340","PERIAPSIS":"546.104","OBJECT_TYPE":"PAYLOAD","MEAN_ANOMALY":"295.0070","FILE":"3375650","BSTAR":"0.00002041000000","SEMIMAJOR_AXIS":"6925.357","EPHEMERIS_TYPE":"0","CLASSIFICATION_TYPE":"U","TIME_SYSTEM":"UTC","COUNTRY_CODE":"US","OBJECT_ID":"2021-005AZ","LAUNCH_DATE":"2021-01-20","TLE_LINE2":"2 47396  53.0559  33.3181 0001614  65.1086 295.0070 15.06397235 65842","MEAN_MOTION":"15.06397235","MEAN_ELEMENT_THEORY":"SGP4","ECCENTRICITY":"0.00016140","ELEMENT_SET_NO":"999","NORAD_CAT_ID":"47396","DECAY_DATE":null,"REV_AT_EPOCH":"6584","RA_OF_ASC_NODE":"33.3181","PERIOD":"95.592","MEAN_MOTION_DOT":"0.00000022","TLE_LINE1":"1 47396U 21005AZ  22085.83913133  .00000022  00000-0  20410-4 0  9990","ARG_OF_PERICENTER":"65.1086","CENTER_NAME":"EARTH","RCS_SIZE":"LARGE","INCLINATION":"53.0559","REF_FRAME":"TEME","SITE":"AFETR","OBJECT_NAME":"STARLINK-2118","EPOCH":"2022-03-26T20:08:20.946912","GP_ID":"199779242","MEAN_MOTION_DDOT":"0.0000000000000"},{"NORAD_CAT_ID":"47397","PERIOD":"95.592","MEAN_MOTION_DOT":"-0.00002078","RA_OF_ASC_NODE":"63.0255","REV_AT_EPOCH":"6543","DECAY_DATE":null,"ARG_OF_PERICENTER":"43.6927","TLE_LINE1":"1 47397U 21005BA  22085.90270847 -.00002078  00000-0 -12063-3 0  9996","RCS_SIZE":"LARGE","CENTER_NAME":"EARTH","SITE":"AFETR","REF_FRAME":"TEME","INCLINATION":"53.0550","GP_ID":"199778992","EPOCH":"2022-03-26T21:39:54.011808","OBJECT_NAME":"STARLINK-2119","MEAN_MOTION_DDOT":"0.0000000000000","MEAN_MOTION":"15.06404818","MEAN_ELEMENT_THEORY":"SGP4","ECCENTRICITY":"0.00022810","ELEMENT_SET_NO":"999","CLASSIFICATION_TYPE":"U","TIME_SYSTEM":"UTC","COUNTRY_CODE":"US","TLE_LINE2":"2 47397  53.0550  63.0255 0002281  43.6927 316.4242 15.06404818 65432","OBJECT_ID":"2021-005BA","LAUNCH_DATE":"2021-01-20","OBJECT_TYPE":"PAYLOAD","PERIAPSIS":"545.619","APOAPSIS":"548.778","MEAN_ANOMALY":"316.4242","FILE":"3375650","BSTAR":"-0.00012063000000","EPHEMERIS_TYPE":"0","SEMIMAJOR_AXIS":"6925.334"},{"NORAD_CAT_ID":"47398","RA_OF_ASC_NODE":"33.1457","PERIOD":"95.592","MEAN_MOTION_DOT":"0.00000053","DECAY_DATE":null,"REV_AT_EPOCH":"6584","ARG_OF_PERICENTER":"63.9996","TLE_LINE1":"1 47398U 21005BB  22085.87598462  .00000053  00000-0  22433-4 0  9991","RCS_SIZE":"LARGE","CENTER_NAME":"EARTH","REF_FRAME":"TEME","SITE":"AFETR","INCLINATION":"53.0576","EPOCH":"2022-03-26T21:01:25.071168","GP_ID":"199780244","OBJECT_NAME":"STARLINK-2120","MEAN_MOTION_DDOT":"0.0000000000000","MEAN_MOTION":"15.06397632","ECCENTRICITY":"0.00017550","MEAN_ELEMENT_THEORY":"SGP4","ELEMENT_SET_NO":"999","CLASSIFICATION_TYPE":"U","TIME_SYSTEM":"UTC","COUNTRY_CODE":"US","TLE_LINE2":"2 47398  53.0576  33.1457 0001755  63.9996 296.1174 15.06397632 65847","OBJECT_ID":"2021-005BB","LAUNCH_DATE":"2021-01-20","OBJECT_TYPE":"PAYLOAD","PERIAPSIS":"546.005","APOAPSIS":"548.436","MEAN_ANOMALY":"296.1174","BSTAR":"0.00002243300000","FILE":"3375650","EPHEMERIS_TYPE":"0","SEMIMAJOR_AXIS":"6925.356"},{"NORAD_CAT_ID":"47399","PERIOD":"95.592","RA_OF_ASC_NODE":"43.1001","MEAN_MOTION_DOT":"-0.00000009","REV_AT_EPOCH":"6570","DECAY_DATE":null,"ARG_OF_PERICENTER":"54.9987","TLE_LINE1":"1 47399U 21005BC  22085.88886754 -.00000009  00000-0  18331-4 0  9991","RCS_SIZE":"LARGE","CENTER_NAME":"EARTH","REF_FRAME":"TEME","SITE":"AFETR","INCLINATION":"53.0569","GP_ID":"199779994","EPOCH":"2022-03-26T21:19:58.155456","OBJECT_NAME":"STARLINK-2121","MEAN_MOTION_DDOT":"0.0000000000000","MEAN_MOTION":"15.06395651","ECCENTRICITY":"0.00017420","MEAN_ELEMENT_THEORY":"SGP4","ELEMENT_SET_NO":"999","CLASSIFICATION_TYPE":"U","TIME_SYSTEM":"UTC","COUNTRY_CODE":"US","TLE_LINE2":"2 47399  53.0569  43.1001 0001742  54.9987 305.1165 15.06395651 65707","OBJECT_ID":"2021-005BC","LAUNCH_DATE":"2021-01-20","OBJECT_TYPE":"PAYLOAD","APOAPSIS":"548.433","PERIAPSIS":"546.020","MEAN_ANOMALY":"305.1165","BSTAR":"0.00001833100000","FILE":"3375650","EPHEMERIS_TYPE":"0","SEMIMAJOR_AXIS":"6925.362"},{"SITE":"AFETR","REF_FRAME":"TEME","INCLINATION":"53.0557","GP_ID":"199720846","EPOCH":"2022-03-26T12:58:23.034432","OBJECT_NAME":"STARLINK-2122","MEAN_MOTION_DDOT":"0.0000000000000","NORAD_CAT_ID":"47400","PERIOD":"95.592","RA_OF_ASC_NODE":"24.6444","MEAN_MOTION_DOT":"0.00001719","REV_AT_EPOCH":"6593","DECAY_DATE":null,"ARG_OF_PERICENTER":"56.4104","TLE_LINE1":"1 47400U 21005BD  22085.54054438  .00001719  00000-0  13429-3 0  9993","RCS_SIZE":"LARGE","CENTER_NAME":"EARTH","MEAN_ELEMENT_THEORY":"SGP4","ECCENTRICITY":"0.00016750","ELEMENT_SET_NO":"999","MEAN_MOTION":"15.06400193","TLE_LINE2":"2 47400  53.0557  24.6444 0001675  56.4104 303.7044 15.06400193 65938","LAUNCH_DATE":"2021-01-20","OBJECT_ID":"2021-005BD","CLASSIFICATION_TYPE":"U","TIME_SYSTEM":"UTC","COUNTRY_CODE":"US","FILE":"3375145","BSTAR":"0.00013429000000","EPHEMERIS_TYPE":"0","SEMIMAJOR_AXIS":"6925.348","OBJECT_TYPE":"PAYLOAD","PERIAPSIS":"546.053","APOAPSIS":"548.373","MEAN_ANOMALY":"303.7044"},{"LAUNCH_DATE":"2021-01-20","OBJECT_ID":"2021-005BE","TLE_LINE2":"2 47401  53.0567  33.3933 0001986  46.3389 313.7764 15.06386912 65840","COUNTRY_CODE":"US","CLASSIFICATION_TYPE":"U","TIME_SYSTEM":"UTC","SEMIMAJOR_AXIS":"6925.389","EPHEMERIS_TYPE":"0","BSTAR":"0.00009123100000","FILE":"3375650","PERIAPSIS":"545.878","APOAPSIS":"548.629","OBJECT_TYPE":"PAYLOAD","MEAN_ANOMALY":"313.7764","OBJECT_NAME":"STARLINK-2123","GP_ID":"199779493","EPOCH":"2022-03-26T19:47:07.349568","MEAN_MOTION_DDOT":"0.0000000000000","INCLINATION":"53.0567","SITE":"AFETR","REF_FRAME":"TEME","TLE_LINE1":"1 47401U 21005BE  22085.82439062  .00001077  00000-0  91231-4 0  9990","ARG_OF_PERICENTER":"46.3389","CENTER_NAME":"EARTH","RCS_SIZE":"LARGE","NORAD_CAT_ID":"47401","DECAY_DATE":null,"REV_AT_EPOCH":"6584","PERIOD":"95.593","MEAN_MOTION_DOT":"0.00001077","RA_OF_ASC_NODE":"33.3933","ELEMENT_SET_NO":"999","ECCENTRICITY":"0.00019860","MEAN_ELEMENT_THEORY":"SGP4","MEAN_MOTION":"15.06386912"},{"FILE":"3375650","BSTAR":"0.00003418200000","EPHEMERIS_TYPE":"0","SEMIMAJOR_AXIS":"6925.342","MEAN_ANOMALY":"308.3959","OBJECT_TYPE":"PAYLOAD","PERIAPSIS":"545.737","APOAPSIS":"548.677","TLE_LINE2":"2 47402  53.0558  33.2966 0002123  51.7221 308.3959 15.06402154 65848","LAUNCH_DATE":"2021-01-20","OBJECT_ID":"2021-005BF","TIME_SYSTEM":"UTC","CLASSIFICATION_TYPE":"U","COUNTRY_CODE":"US","ECCENTRICITY":"0.00021230","MEAN_ELEMENT_THEORY":"SGP4","ELEMENT_SET_NO":"999","MEAN_MOTION":"15.06402154","REF_FRAME":"TEME","SITE":"AFETR","INCLINATION":"53.0558","MEAN_MOTION_DDOT":"0.0000000000000","GP_ID":"199779744","EPOCH":"2022-03-26T20:13:38.447904","OBJECT_NAME":"STARLINK-2124","RA_OF_ASC_NODE":"33.2966","PERIOD":"95.592","MEAN_MOTION_DOT":"0.00000227","REV_AT_EPOCH":"6584","DECAY_DATE":null,"NORAD_CAT_ID":"47402","RCS_SIZE":"LARGE","CENTER_NAME":"EARTH","ARG_OF_PERICENTER":"51.7221","TLE_LINE1":"1 47402U 21005BF  22085.84280611  .00000227  00000-0  34182-4 0  9995"},{"MEAN_MOTION_DDOT":"0.0000000000000","GP_ID":"199780495","EPOCH":"2022-03-26T20:24:15.888960","OBJECT_NAME":"STARLINK-2127","SITE":"AFETR","REF_FRAME":"TEME","INCLINATION":"53.0560","RCS_SIZE":"LARGE","CENTER_NAME":"EARTH","ARG_OF_PERICENTER":"58.4220","TLE_LINE1":"1 47403U 21005BG  22085.85018390  .00000634  00000-0  61485-4 0  9998","PERIOD":"95.592","MEAN_MOTION_DOT":"0.00000634","RA_OF_ASC_NODE":"33.2734","DECAY_DATE":null,"REV_AT_EPOCH":"6584","NORAD_CAT_ID":"47403","ELEMENT_SET_NO":"999","ECCENTRICITY":"0.00017080","MEAN_ELEMENT_THEORY":"SGP4","MEAN_MOTION":"15.06397653","TLE_LINE2":"2 47403  53.0560  33.2734 0001708  58.4220 301.6936 15.06397653 65844","OBJECT_ID":"2021-005BG","LAUNCH_DATE":"2021-01-20","COUNTRY_CODE":"US","TIME_SYSTEM":"UTC","CLASSIFICATION_TYPE":"U","EPHEMERIS_TYPE":"0","SEMIMAJOR_AXIS":"6925.356","BSTAR":"0.00006148500000","FILE":"3375650","MEAN_ANOMALY":"301.6936","OBJECT_TYPE":"PAYLOAD","PERIAPSIS":"546.038","APOAPSIS":"548.404"},{"REF_FRAME":"TEME","SITE":"AFETR","INCLINATION":"53.0550","MEAN_MOTION_DDOT":"0.0000000000000","GP_ID":"199779243","EPOCH":"2022-03-26T20:18:57.537792","OBJECT_NAME":"STARLINK-2128","RA_OF_ASC_NODE":"33.2887","PERIOD":"95.592","MEAN_MOTION_DOT":"0.00003518","DECAY_DATE":null,"REV_AT_EPOCH":"6584","NORAD_CAT_ID":"47404","RCS_SIZE":"LARGE","CENTER_NAME":"EARTH","ARG_OF_PERICENTER":"50.3500","TLE_LINE1":"1 47404U 21005BH  22085.84649928  .00003518  00000-0  25490-3 0  9994","MEAN_ELEMENT_THEORY":"SGP4","ECCENTRICITY":"0.00019580","ELEMENT_SET_NO":"999","MEAN_MOTION":"15.06407219","TLE_LINE2":"2 47404  53.0550  33.2887 0001958  50.3500 309.7661 15.06407219 65846","LAUNCH_DATE":"2021-01-20","OBJECT_ID":"2021-005BH","TIME_SYSTEM":"UTC","CLASSIFICATION_TYPE":"U","COUNTRY_CODE":"US","BSTAR":"0.00025490000000","FILE":"3375650","EPHEMERIS_TYPE":"0","SEMIMAJOR_AXIS":"6925.326","MEAN_ANOMALY":"309.7661","OBJECT_TYPE":"PAYLOAD","APOAPSIS":"548.547","PERIAPSIS":"545.835"}];
